{
  "norad_id": 68021,
  "name": "STARLINK-36858",
  "history": [
    {
      "epoch": "2026-03-24T12:55:13.776960Z",
      "apogee_km": 344.826297536978,
      "perigee_km": 342.5481368732835,
      "latitude_deg": 3.4034526287942866e-05,
      "longitude_deg": 17.065517081840447,
      "height_km": 346.63218245886446,
      "semi_major_axis_km": 6721.8242172051305,
      "eccentricity": 0.00016946,
      "inclination_deg": 97.2853,
      "raan_deg": 32.8877,
      "arg_perigee_deg": 78.8231,
      "mean_anomaly_deg": 281.3225,
      "mean_motion_rev_day": 15.75331784
    },
    {
      "epoch": "2026-03-29T22:40:50.654208Z",
      "apogee_km": 372.09959422995416,
      "perigee_km": 367.7901341898323,
      "latitude_deg": 2.048416736095849e-05,
      "longitude_deg": -129.01140704752498,
      "height_km": 373.9597214869742,
      "semi_major_axis_km": 6748.081864209893,
      "eccentricity": 0.00031931,
      "inclination_deg": 97.285,
      "raan_deg": 38.5435,
      "arg_perigee_deg": 113.6232,
      "mean_anomaly_deg": 246.5364,
      "mean_motion_rev_day": 15.66146009
    }
  ]
}